#cP2020  3 23  0  0  0.00000000      96 ORBIT IGS14 HLM  IGS
## 2098  86400.00000000   900.00000000 58931 0.0000000000000
+   32   G01G02G03G04G05G06G07G08G09G10G11G12G13G14G15G16G17
+        G18G19G20G21G22G23G24G25G26G27G28G29G30G31G32  0  0
+          0  0  0  0  0  0  0  0  0  0  0  0  0  0  0  0  0
+          0  0  0  0  0  0  0  0  0  0  0  0  0  0  0  0  0
+          0  0  0  0  0  0  0  0  0  0  0  0  0  0  0  0  0
++         2  2  2  3  2  2  2  2  3  2  2  2  2  2  2  2  2
++         3  2  2  2  2  2  2  1  2  2  2  2  1  2  2  0  0
++         0  0  0  0  0  0  0  0  0  0  0  0  0  0  0  0  0
++         0  0  0  0  0  0  0  0  0  0  0  0  0  0  0  0  0
++         0  0  0  0  0  0  0  0  0  0  0  0  0  0  0  0  0
%c G  cc GPS ccc cccc cccc cccc cccc ccccc ccccc ccccc ccccc
%c cc cc ccc ccc cccc cccc cccc cccc ccccc ccccc ccccc ccccc
%f  1.2500000  1.025000000  0.00000000000  0.000000000000000
%f  0.0000000  0.000000000  0.00000000000  0.000000000000000
%i    0    0    0    0      0      0      0      0         0
%i    0    0    0    0      0      0      0      0         0
/* FINAL ORBIT COMBINATION FROM WEIGHTED AVERAGE OF:        
/* cod emr esa gfz grg jpl mit ngs sio                      
/* REFERENCED TO IGS TIME (IGST) AND TO WEIGHTED MEAN POLE: 
/* PCV:IGS14_2097 OL/AL:FES2004  NONE     Y  ORB:CMB CLK:CMB
*  2020  3 23 14 15  0.00000000
PG01 -21238.436981 -14959.985653  -6533.463626   -335.351111  5  3  4  84       
PG02   1497.488355  16634.299738  21308.880411   -426.931300  4  4  2  79       
PG03 -12765.836416 -16627.012461  16311.497219   -125.536730  2  2  2  76       
PG04 -16046.454085  -6394.756169  20193.197660    -66.238664  8  7  9  77       
PG05   1821.626290  26321.866535   1755.822161     -9.617677  5  5  4  70       
PG06 -10550.035873  11196.897404  21712.271987   -237.324564  5  3  3 106       
PG07 -24517.884583  -4182.615219  -9679.289348   -242.229265  7  5  5  75       
PG08  -5777.303215 -14142.918563 -21679.851270    -28.145489  4  6  8  84       
PG09 -22247.781443   3834.536133  13956.555898   -182.649757  9  5  6  98       
PG10  12036.032588 -13800.302132 -19068.304757   -286.767192  6  5  4 100       
PG11 -14026.016783 -13748.384361 -18245.596544   -325.882168  7  7  2  73       
PG12  10298.438154  19378.426028  14849.983320    137.473561  3  3  3  83       
PG13  -3397.725047  17291.463357 -19966.784759     -3.600047  4  3  4  93       
PG14  16037.688304 -18218.952487  10897.081849    -24.442643  7  6  7  78       
PG15   8417.520717  13819.835403 -21342.407949   -243.018634  4  2  4  92       
PG16    539.580330 -26289.820457    696.033779   -138.285597  6  4  5  81       
PG17 -21892.413167  14927.089006   1801.092852    236.828482  6  4  5  87       
PG18  24680.968876   8763.371059  -4536.472230    129.275692  5  9  8  77       
PG19 -18478.266396  16861.220050   8627.120817   -181.920585  4  5  4  94       
PG20  15771.391158  -1996.590772 -21365.543186    527.840775  4  5    115       
PG21  24116.484135   1857.328105  -9864.949816    -23.936575  6  4  4 107       
PG22 -10814.441022 -22620.344822   9170.165622   -785.434221  3  4  2  63       
PG23 -17154.056808  -5396.956622  20025.245930   -127.669744  5  7  4  90       
PG24  20629.911562  14879.948350  -8458.885217    -10.737583  5  5  2 102       
PG25  14802.467562   8026.564915  20369.280866     -7.538998  4  3  4  70       
PG26   5388.307774 -23306.009306  11265.958559    173.226308  5  5  2  84       
PG27   5556.191764 -18685.443933 -18008.677019   -246.597450  6  8  9 104       
PG28 -12093.405958  14931.826555 -17814.050972    730.809264  5  7  6  68       
PG29  21444.114974   -833.325512  15622.658365    -63.532047  7  4  5  95       
PG30 -18886.621360   5155.302635 -18008.019063   -181.972221  6  3  3  61       
PG31   8662.489503 -12688.846253  21646.763413    -31.304109  2  5    100       
PG32  20786.935954 -16314.597292   1810.501085    242.982693 10  8  4  95       
*  2020  3 23 14 30  0.00000000
PG01 -20380.129861 -14762.584418  -9217.286673   -335.362490  5  4  3  99       
PG02   -725.383776  15906.173271  21908.891153   -426.937485  4  5  3  88       
PG03 -12804.962381 -18389.654720  14277.212813   -125.545881  3  2  2  96       
PG04 -14158.845568  -7812.218991  21084.583328    -66.243341  7  8  9  81       
PG05   1474.142602  25990.500822   4574.327270     -9.618053  5  5  4  68       
PG06 -12763.921087  10201.909567  21004.437423   -237.332009  5  3  2 108       
PG07 -25326.742671  -4787.143614  -7086.426537   -242.237199  7  5  5  70       
PG08  -3801.517193 -15597.611777 -21089.151031    -28.146869  5  6  9  83       
PG09 -21006.556500   2622.416306  16001.134313   -182.656948  9  5  7 102       
PG10  12425.947975 -11557.102011 -20286.614069   -286.778325  6  5  3 110       
PG11 -11945.162136 -14054.815748 -19511.311396   -325.872278  6  7  2  93       
PG12  10222.104941  20981.355294  12603.710120    137.469649  3  3  4  73       
PG13  -5352.623238  18272.248417 -18603.004393     -3.597340  4  4  3  92       
PG14  17061.276279 -18586.660198   8323.553066    -24.440324  7  7  7  63       
PG15   6630.441133  15374.292186 -20863.340911   -243.016107  4  3  4  89       
PG16    785.456308 -26024.969737   3601.201298   -138.289271  6  5  5  79       
PG17 -21992.946829  14764.189750  -1103.931514    236.834360  7  4  5 123       
PG18  24903.202057   9134.641662  -1708.188334    129.288832  5  8  8  72       
PG19 -19316.381175  17145.257742   5890.935762   -181.916143  4  5  4  69       
PG20  16340.631718    353.343700 -21043.398106    527.840729  4  6    111       
PG21  25044.385355   2494.365090  -7250.287431    -23.931906  5  4  5 111       
PG22 -10691.041454 -23539.911947   6581.585281   -785.433803  3  4  2  73       
PG23 -15418.993373  -6859.792716  20950.274938   -127.667475  4  7  4  77       
PG24  19527.104549  14758.828147 -10944.438276    -10.737827  4  5  2 109       
PG25  14981.398758  10324.239960  19207.310587     -7.537105  5  3  4  74       
PG26   5857.053919 -21923.895751  13583.171202    173.233082  5  5  2  83       
PG27   7194.879005 -19736.413343 -16172.860273   -246.607195  7  9  9  89       
PG28 -12265.475887  12709.138775 -19297.720366    730.806672  5  6  6  70       
PG29  19916.135957    299.597281  17540.625361    -63.540003  6  3  5 100       
PG30 -20592.792059   4154.308204 -16339.949156   -181.980035  6  4  3  68       
PG31  10889.659533 -11643.004373  21266.141907    -31.306261  2  5     99       
PG32  20982.966312 -16116.234871  -1046.530390    242.990708  9  9  5 107       
*  2020  3 23 14 45  0.00000000
PG01 -19238.220837 -14512.522569 -11746.690555   -335.373861  5  4  3  82       
PG02  -3028.248015  15285.452579  22153.310934   -426.943114  4  5  3  91       
PG03 -12894.326067 -19906.470625  11997.498887   -125.554967  3  3  2  77       
PG04 -12284.490634  -9376.125162  21613.644729    -66.247985  8  8  8  80       
PG05   1044.508559  25367.560055   7312.935335     -9.619073  5  6  4  73       
PG06 -14934.546436   9364.236882  19937.270740   -237.339480  5  4  2 104       
PG07 -25886.038463  -5241.451336  -4373.886535   -242.244691  7  6  5  62       
PG08  -1970.491471 -17099.188083 -20133.292935    -28.148076  5  6  9  72       
PG09 -19665.517384   1206.565433  17769.611957   -182.664239  8  5  7  94       
PG10  12953.416040  -9222.266582 -21151.419561   -286.789479  6  5  3  98       
PG11  -9763.693045 -14467.450401 -20452.016165   -325.862621  5  7  3  80       
PG12  10206.065279  22317.657761  10139.636619    137.465816  4  4  4  59       
PG13  -7109.365119  19262.864498 -16921.237450     -3.594653  5  5  3  87       
PG14  17824.205361 -18831.733617   5606.916673    -24.438010  7  7  6  59       
PG15   4966.646322  16962.414136 -20032.885172   -243.013612  3  3  4  96       
PG16   1076.286502 -25444.656304   6442.404150   -138.292940  6  5  5  80       
PG17 -21841.288996  14405.659439  -3989.807663    236.839912  7  5  5  61       
PG18  24844.760425   9377.387732   1149.428823    129.302026  5  8  8  87       
PG19 -19873.508533  17296.983102   3052.539300   -181.911419  4  5  4  92       
PG20  17004.608270   2617.729486 -20362.602742    527.840607  4  6    107       
PG21  25704.682721   2992.983174  -4505.445638    -23.927156  5  4  5 102       
PG22 -10534.278930 -24178.865236   3881.239201   -785.433861  3  4  2  80       
PG23 -13696.295107  -8465.638581  21528.336133   -127.665038  4  7  4  92       
PG24  18163.865792  14616.058299 -13246.888609    -10.737767  5  4  1  93       
PG25  15254.791032  12456.666071  17710.927927     -7.535238  5  3  4  86       
PG26   6444.849344 -20322.926750  15663.629829    173.239839  5  5  2  83       
PG27   8605.420866 -20730.758132 -14057.208706   -246.616805  7  9  9  93       
PG28 -12570.737610  10343.411618 -20433.892682    730.803843  5  6  6  70       
PG29  18292.226074   1635.783805  19156.084676    -63.548380  5  2  5 104       
PG30 -22155.861108   3314.900147 -14392.381454   -181.987838  6  4  3  72       
PG31  13104.633919 -10739.007407  20520.325627    -31.308457  1  5  1  85       
PG32  20943.584390 -15717.207362  -3885.376212    242.998723  9  8  5 109       
EOF
